STARLINK-30908          
1 58424U 23180Y   26068.00995477  .00001946  00000+0  82217-4 0  9993
2 58424  43.0016  56.1487 0001301 269.1344  90.9358 15.26739149127522
TRANSPORTER-13 OBJECT AH
1 63241U 25052AH  26068.64880921  .00014108  00000+0  55931-3 0  9999
2 63241  97.3962 323.1443 0008070 138.7508 221.4341 15.25468797 54753
